{
    "satellites": [
        {
            "name": "starlink336",
            "title": "Starlink-336 (G15-12)",
            "tle": [
                "1 67100C 25298AB  25359.07548611 -.01864800  00000+0 -10281-1 0  3597",
                "2 67100  69.9959 214.8457 0003913 277.7026 155.0335 15.81349210    18"
            ],
            "stdMag": 5,
            "noradId": "67100",
            "tleUrl": "http://celestrak.org/NORAD/elements/supplemental/sup-gp.php?FILE=starlink&FORMAT=tle",
            "launchDate": "2025-12-14T05:49:00.000Z",
            "active": true,
            "batch": [
                {
                    "noradId": "67100",
                    "tle": [
                        "1 67100C 25298AB  25359.07548611 -.01864800  00000+0 -10281-1 0  3597",
                        "2 67100  69.9959 214.8457 0003913 277.7026 155.0335 15.81349210    18"
                    ]
                },
                {
                    "noradId": "67099",
                    "tle": [
                        "1 67099C 25298AA  25359.10673611 -.02609700  00000+0 -15937-1 0  3597",
                        "2 67099  69.9968 214.7619 0003786 265.0366 340.9592 15.79863148    17"
                    ]
                },
                {
                    "noradId": "67101",
                    "tle": [
                        "1 67101C 25298AC  25359.10951389 -.01868700  00000+0 -10364-1 0  3597",
                        "2 67101  69.9963 214.7533 0003964 267.5746 355.0993 15.81222690    14"
                    ]
                },
                {
                    "noradId": "67098",
                    "tle": [
                        "1 67098C 25298Z   25359.10395833 -.01868400  00000+0 -10356-1 0  3596",
                        "2 67098  69.9960 214.7709 0003728 272.1258 317.1729 15.81236900    14"
                    ]
                },
                {
                    "noradId": "67097",
                    "tle": [
                        "1 67097C 25298Y   25359.10951389 -.01868800  00000+0 -10363-1 0  3591",
                        "2 67097  69.9960 214.7575 0003965 269.5242 349.2264 15.81226013    14"
                    ]
                },
                {
                    "noradId": "67096",
                    "tle": [
                        "1 67096C 25298X   25359.07201389 -.01867900  00000+0 -10291-1 0  3594",
                        "2 67096  69.9963 214.8673 0003834 272.6965 130.6551 15.81367807    16"
                    ]
                },
                {
                    "noradId": "67095",
                    "tle": [
                        "1 67095C 25298W   25359.06923611 -.01866300  00000+0 -10279-1 0  3590",
                        "2 67095  69.9960 214.8772 0003890 276.1888 109.5465 15.81371819    14"
                    ]
                },
                {
                    "noradId": "67094",
                    "tle": [
                        "1 67094C 25298V   25359.10604167 -.01869100  00000+0 -10357-1 0  3594",
                        "2 67094  69.9962 214.7746 0003773 271.6707 321.4642 15.81242474    11"
                    ]
                },
                {
                    "noradId": "67093",
                    "tle": [
                        "1 67093C 25298U   25359.10256944 -.01867700  00000+0 -10338-1 0  3592",
                        "2 67093  69.9963 214.7871 0003836 269.2256 301.9843 15.81263964    15"
                    ]
                },
                {
                    "noradId": "67092",
                    "tle": [
                        "1 67092C 25298T   25359.10812500 -.01867800  00000+0 -10348-1 0  3599",
                        "2 67092  69.9964 214.7737 0003859 267.3743 333.4698 15.81244995    12"
                    ]
                },
                {
                    "noradId": "67091",
                    "tle": [
                        "1 67091C 25298S   25359.10465278 -.01867800  00000+0 -10343-1 0  3599",
                        "2 67091  69.9966 214.7860 0003783 268.7003 310.5215 15.81255879    14"
                    ]
                },
                {
                    "noradId": "67090",
                    "tle": [
                        "1 67090C 25298R   25359.07340278 -.01868100  00000+0 -10286-1 0  3596",
                        "2 67090  69.9963 214.8778 0004056 272.2545 126.9983 15.81380900    19"
                    ]
                },
                {
                    "noradId": "67089",
                    "tle": [
                        "1 67089C 25298Q   25359.10812500 -.01867600  00000+0 -10346-1 0  3591",
                        "2 67089  69.9967 214.7809 0003767 270.2777 324.7132 15.81247885    16"
                    ]
                },
                {
                    "noradId": "67088",
                    "tle": [
                        "1 67088C 25298P   25359.07062500 -.01868100  00000+0 -10277-1 0  3592",
                        "2 67088  69.9970 214.8911 0004070 273.7444 105.6743 15.81398214    18"
                    ]
                },
                {
                    "noradId": "67087",
                    "tle": [
                        "1 67087C 25298N   25359.11020833 -.02623700  00000+0 -16037-1 0  3595",
                        "2 67087  69.9975 214.7833 0003773 265.1202 334.6969 15.79859250    13"
                    ]
                },
                {
                    "noradId": "67086",
                    "tle": [
                        "1 67086C 25298M   25359.07340278 -.01868500  00000+0 -10283-1 0  3592",
                        "2 67086  69.9967 214.8878 0004001 274.0518 117.2315 15.81392483    10"
                    ]
                },
                {
                    "noradId": "67085",
                    "tle": [
                        "1 67085C 25298L   25359.10743056 -.01866200  00000+0 -10326-1 0  3599",
                        "2 67085  69.9968 214.7932 0003802 267.9100 314.8328 15.81271297    14"
                    ]
                },
                {
                    "noradId": "67084",
                    "tle": [
                        "1 67084C 25298K   25359.10951389 -.01868400  00000+0 -10340-1 0  3598",
                        "2 67084  69.9967 214.7895 0003773 271.8691 320.7491 15.81269257    16"
                    ]
                },
                {
                    "noradId": "67083",
                    "tle": [
                        "1 67083C 25298J   25359.10743056 -.01865900  00000+0 -10321-1 0  3598",
                        "2 67083  69.9966 214.7980 0003782 267.7601 311.0052 15.81276733    17"
                    ]
                },
                {
                    "noradId": "67082",
                    "tle": [
                        "1 67082C 25298H   25359.11020833 -.01868300  00000+0 -10336-1 0  3592",
                        "2 67082  69.9969 214.7928 0003775 271.5709 320.8923 15.81276151    14"
                    ]
                },
                {
                    "noradId": "67081",
                    "tle": [
                        "1 67081C 25298G   25359.11020833 -.01868200  00000+0 -10334-1 0  3598",
                        "2 67081  69.9969 214.7952 0003760 269.9394 320.4597 15.81281069    12"
                    ]
                },
                {
                    "noradId": "67080",
                    "tle": [
                        "1 67080C 25298F   25359.10673611 -.01868200  00000+0 -10326-1 0  3595",
                        "2 67080  69.9967 214.8075 0003830 270.5664 298.1060 15.81296948    10"
                    ]
                },
                {
                    "noradId": "67079",
                    "tle": [
                        "1 67079C 25298E   25359.07548611 -.01865900  00000+0 -10255-1 0  3595",
                        "2 67079  69.9970 214.8995 0004074 274.7933 113.9033 15.81418860    12"
                    ]
                },
                {
                    "noradId": "67077",
                    "tle": [
                        "1 67077C 25298C   25359.10326389 -.01868500  00000+0 -10315-1 0  3599",
                        "2 67077  69.9966 214.8247 0003675 272.9272 269.7960 15.81325757    18"
                    ]
                },
                {
                    "noradId": "67078",
                    "tle": [
                        "1 67078C 25298D   25359.10395833 -.01868500  00000+0 -10314-1 0  3599",
                        "2 67078  69.9968 214.8206 0003769 271.2829 277.1959 15.81327479    14"
                    ]
                },
                {
                    "noradId": "67075",
                    "tle": [
                        "1 67075C 25298A   25359.10395833 -.01867800  00000+0 -10307-1 0  3590",
                        "2 67075  69.9969 214.8279 0003709 272.5647 269.9394 15.81334547    14"
                    ]
                },
                {
                    "noradId": "67076",
                    "tle": [
                        "1 67076C 25298B   25359.10743056 -.01869700  00000+0 -10323-1 0  3594",
                        "2 67076  69.9968 214.8155 0003687 269.5425 294.6541 15.81323908    10"
                    ]
                }
            ]
        }
    ],
    "config": {}
}